PROMETHEUS 2-3          
1 41855U 16067H   23335.43305464  .00017702  00000+0  10948-2 0  9998
2 41855  98.0772 133.1931 0013357  25.4366 334.7516 15.09830117385688
DIDO-2                  
1 42000U 17008BE  23335.63497644  .00056894  00000+0  10206-2 0  9993
2 42000  97.1778  29.8455 0005471 131.0747 229.0979 15.49718464377778
AALTO-1                 
1 42775U 17036L   23335.59169759  .00045464  00000+0  97971-3 0  9997
2 42775  97.1335   1.5441 0006628 204.6787 155.4145 15.44435861358277
URSA MAIOR              
1 42776U 17036M   23335.88149103  .00063669  00000+0  11950-2 0  9990
2 42776  97.1337   3.8438 0006308 194.3019 165.8055 15.48387781358433
DIAMOND RED             
1 42783U 17036U   23335.90694560  .00088712  00000+0  13161-2 0  9995
2 42783  97.1268   8.1744 0004162 189.3842 170.7336 15.54910878358710
PEGASUS                 
1 42784U 17036V   23335.64147522  .00359728  00000+0  19702-2 0  9993
2 42784  97.1170  13.4447 0003449 155.9504 204.1926 15.78840820359053
DIAMOND GREEN           
1 42785U 17036W   23335.64561897  .00104692  00000+0  13769-2 0  9994
2 42785  97.1245   8.5400 0004171 183.9821 176.1403 15.58117811358789
DIAMOND BLUE            
1 42786U 17036X   23335.84091644  .00102987  00000+0  14512-2 0  9997
2 42786  97.1276   8.4585 0004672 181.4657 178.6586 15.56261617358795
CICERO 6                
1 42793U 17036AE  23335.64885846  .00065669  00000+0  11424-2 0  9992
2 42793  97.1257   7.3565 0004401 187.1438 172.9753 15.50559692358732
CORVUS BC2              
1 42846U 17042X   23335.49784797  .00006033  00000+0  54374-3 0  9996
2 42846  97.3737 166.9270 0009293  20.0582 340.1004 14.95879065347722
CORVUS BC1              
1 42847U 17042Y   23335.47776776  .00005861  00000+0  52695-3 0  9995
2 42847  97.3722 167.2807 0008824  18.1884 341.9652 14.95988215347736
MIRATA                  
1 43015U 17073C   23335.65138987  .00028875  00000+0  16332-2 0  9990
2 43015  97.6122 218.9104 0192259 213.6584 145.2309 14.98622442326517
MAKERSAT 0              
1 43016U 17073D   23335.65246400  .00017208  00000+0  10834-2 0  9990
2 43016  97.6058 215.7009 0211908 227.4753 130.8402 14.92467419326259
CORVUS BC3              
1 43118U 18004H   23335.76960642  .00066007  00000+0  11700-2 0  9995
2 43118  97.3104  50.9252 0004570 248.6772 111.3992 15.50025327327882
GOMX-4B                 
1 43196U 18015E   23335.93470185  .00045405  00000+0  97150-3 0  9993
2 43196  97.5939 132.9164 0011299 325.5088  34.5425 15.44603881324761
GOMX-4A                 
1 43197U 18015F   23335.90757069  .00052745  00000+0  96237-3 0  9990
2 43197  97.5918 135.9872 0010318 317.2066  42.8380 15.49211403324978
CUBEBEL-1 (BSUSAT-1)    
1 43666U 18083E   23335.88774380  .00145958  00000+0  19391-2 0  9992
2 43666  97.3568  10.1513 0004657 210.3348 149.7639 15.57699770283108
CICERO 10               
1 43690U 18088A   23335.95316246  .00059992  00000+0  12129-2 0  9999
2 43690  85.0254 318.3564 0006541 352.2372   7.8781 15.46213020281329
PROXIMA I               
1 43694U 18088E   23335.93883922  .00077463  00000+0  12719-2 0  9999
2 43694  85.0171 313.1637 0004518 282.7334  77.3419 15.52121466281679
PROXIMA II              
1 43696U 18088G   23335.00504987  .00062713  00000+0  10476-2 0  9990
2 43696  85.0173 313.9019 0004877 289.4710  70.6021 15.51683704281510
SIRION PATHFINDER-2     
1 43759U 18099B   23335.69232508  .00007987  00000+0  64121-3 0  9993
2 43759  97.5473  32.5439 0012148 252.6411 107.3484 15.00263816272727
CORVUS BC4              
1 43767U 18099K   23335.64761566  .00008203  00000+0  66703-3 0  9998
2 43767  97.5483  30.2043 0007337 288.8101  71.2326 14.99798528272616
MOVE-II                 
1 43780U 18099Y   23335.17413656  .00019579  00000+0  12641-2 0  9994
2 43780  97.5505  35.9498 0006854 310.5577  49.5054 15.08273285272867
SPACEBEE-7              
1 43816U 18099BL  23335.40638097  .00015933  00000+0  10959-2 0  9998
2 43816  97.5767  37.1394 0010144 247.5889 112.4264 15.05951747272448
SPACEBEE-5              
1 43817U 18099BM  23335.73257752  .00181035  00000+0  44503-2 0  9999
2 43817  97.5698  50.1134 0003184 232.9094 127.1861 15.39920955273240
SPACEBEE-6              
1 43818U 18099BN  23335.72134178  .00030929  00000+0  18014-2 0  9998
2 43818  97.5702  40.4651 0009498 258.7896 101.2267 15.11913277272828
SHIELDS 1               
1 43850U 18104B   23335.70650200  .00017385  00000+0  55787-3 0  9998
2 43850  85.0268  57.1705 0014187  94.9791 265.3077 15.32095043275721
STF-1                   
1 43852U 18104D   23335.71073971  .00168498  00000+0  17185-2 0  9996
2 43852  85.0151  51.1912 0005689  87.1839 273.0077 15.64538803276360
ZACUBE-2                
1 43907U 18111AH  23335.92346760  .00090651  00000+0  13253-2 0  9994
2 43907  97.1035 212.6760 0010150 336.2404  23.8381 15.55256997275073
LUME 1                  
1 43908U 18111AJ  23335.60874951  .00183888  00000+0  15681-2 0  9990
2 43908  97.1048 218.1086 0005096 332.3673  27.7318 15.68953956275401
MOVE-IIB                
1 44398U 19038N   23335.81948569  .02663086  12026-1  30248-2 0  9997
2 44398  97.6528 331.1261 0006114 114.8280 245.3640 16.12250899244759
SONATE                  
1 44400U 19038Q   23335.93067051  .00023444  00000+0  90793-3 0  9997
2 44400  97.7019 317.7227 0021176  85.7860 274.5797 15.25965149243778
LUCKY-7                 
1 44406U 19038W   23335.94350219  .00038489  00000+0  12855-2 0  9992
2 44406  97.6968 319.8682 0019380  77.7218 282.6190 15.30746126243928
BEESAT 9                
1 44412U 19038AC  23335.92024408  .00071694  00000+0  16247-2 0  9999
2 44412  97.6859 323.5557 0015475  70.0225 290.2687 15.42714727243899
JAISAT-1                
1 44419U 19038F   23335.91124769  .00069718  00000+0  15788-2 0  9999
2 44419  97.6844 324.6684 0014925  68.0334 292.2497 15.42753376244277
DUCHIFAT-3              
1 44854U 19089C   23335.86901624  .00018149  00000+0  10949-2 0  9991
2 44854  36.9581 166.5813 0008640 271.0365  88.9390 15.10031820218224
M2 PATHFINDER           
1 45727U 20037E   23335.43065855  .00006561  00000+0  59806-3 0  9997
2 45727  97.7634 148.3259 0013062  70.1485 290.1143 14.95397487186228
NETSAT-4                
1 46504U 20068U   23335.82467428  .00014359  00000+0  87245-3 0  9992
2 46504  97.7828 283.6945 0009648 330.2652  29.8027 15.10552974174185
NETSAT-3                
1 46505U 20068V   23335.81820053  .00014147  00000+0  86742-3 0  9995
2 46505  97.7805 283.4016 0009110 340.0634  20.0237 15.10229383174182
NETSAT-1                
1 46506U 20068W   23335.84822529  .00010557  00000+0  66235-3 0  9995
2 46506  97.7832 283.2144 0007917 353.6156   6.4970 15.09475438174178
NETSAT-2                
1 46507U 20068X   23335.83066379  .00013646  00000+0  83162-3 0  9998
2 46507  97.7815 283.3980 0007542   1.2490 358.8756 15.10470715174137
WILDTRACKCUBE-SIMBA     
1 47941U 21022K   23335.86999710  .00019336  00000+0  10116-2 0  9999
2 47941  97.4785 230.0602 0019261 112.8661 247.4608 15.15723713148373
BEESAT-6                
1 47957U 21022AB  23334.96024929  .00055994  00000+0  19328-2 0  9991
2 47957  97.4742 233.3250 0016046  99.0969 261.2087 15.29640031148329
SMOG-1                  
1 47964U 21022AJ  23335.28154363  .00053872  00000+0  17676-2 0  9998
2 47964  97.4816 236.2626 0014825  85.2590 275.0344 15.31311808147540
BCCSAT-1                
1 48041U 21022AK  23335.69598555  .00049944  00000+0  18557-2 0  9999
2 48041  97.4806 234.8464 0013073  87.0287 273.2448 15.27296789147468
BEESAT-5                
1 48083U 21022AM  23335.70017843  .00071868  00000+0  22815-2 0  9995
2 48083  97.4597 234.5252 0015653  94.0572 266.2459 15.32273672147628
BEESAT-7                
1 48084U 21022AN  23334.68832468  .00052167  00000+0  17663-2 0  9996
2 48084  97.4727 233.3296 0015763  98.8572 261.4454 15.30290720147020
BEESAT-8                
1 48085U 21022AP  23334.91845888  .00023335  00000+0  10438-2 0  9991
2 48085  97.4848 231.7511 0017651 106.8398 253.4775 15.21160993147486
LEDSAT                  
1 49069U 21073D   23335.72056438  .00019075  00000+0  93169-3 0  9994
2 49069  97.4645  44.0000 0020674 258.5419 101.3493 15.18112094126288
